{
  "type": "FeatureCollection",
  "crs": {
    "type": "name",
    "properties": {
      "name": "EPSG:4326"
    }
  },
  "features": [
    {
      "type": "Feature",
      "properties": {
        "Id": 1,
        "Name": "Cerro Tusa"
      },
      "geometry": {
        "type": "Polygon",
        "coordinates": [
          [
            [
              -75.7700688,
              5.954893
            ],
            [
              -75.7716306,
              5.9552504
            ],
            [
              -75.77267,
              5.9557547
            ],
            [
              -75.7747726,
              5.9594054
            ],
            [
              -75.7773583,
              5.9651815
            ],
            [
              -75.7770343,
              5.9665104
            ],
            [
              -75.7766609,
              5.9676013
            ],
            [
              -75.776449,
              5.9693353
            ],
            [
              -75.7760914,
              5.9697076
            ],
            [
              -75.7754305,
              5.969922
            ],
            [
              -75.7747716,
              5.9709271
            ],
            [
              -75.7715331,
              5.9706103
            ],
            [
              -75.7672966,
              5.9695776
            ],
            [
              -75.7645767,
              5.9658803
            ],
            [
              -75.7634767,
              5.9629736
            ],
            [
              -75.7638551,
              5.9620585
            ],
            [
              -75.7640501,
              5.9618712
            ],
            [
              -75.7644172,
              5.9603652
            ],
            [
              -75.7649784,
              5.9595093
            ],
            [
              -75.7668234,
              5.9589106
            ],
            [
              -75.767198,
              5.9585206
            ],
            [
              -75.7674904,
              5.9582397
            ],
            [
              -75.7676778,
              5.9578536
            ],
            [
              -75.7681651,
              5.9569075
            ],
            [
              -75.7686733,
              5.9558601
            ],
            [
              -75.7693979,
              5.9553689
            ],
            [
              -75.7699752,
              5.9551816
            ],
            [
              -75.7700688,
              5.954893
            ]
          ]
        ]
      }
    },
    {
      "type": "Feature",
      "properties": {
        "Id": 2,
        "Name": "Cerro Sillón"
      },
      "geometry": {
        "type": "Polygon",
        "coordinates": [
          [
            [
              -75.7605122,
              5.9283257
            ],
            [
              -75.7615263,
              5.9287524
            ],
            [
              -75.7623191,
              5.9300472
            ],
            [
              -75.7628839,
              5.9324186
            ],
            [
              -75.7632873,
              5.9330048
            ],
            [
              -75.7636623,
              5.9335854
            ],
            [
              -75.7645753,
              5.9338029
            ],
            [
              -75.764809,
              5.9345411
            ],
            [
              -75.7652067,
              5.9356755
            ],
            [
              -75.7651399,
              5.9373604
            ],
            [
              -75.7653956,
              5.9375974
            ],
            [
              -75.764809,
              5.9377831
            ],
            [
              -75.7634784,
              5.941613
            ],
            [
              -75.7623316,
              5.9443358
            ],
            [
              -75.7625155,
              5.9454356
            ],
            [
              -75.7628486,
              5.9457443
            ],
            [
              -75.7625228,
              5.9467735
            ],
            [
              -75.7623243,
              5.9473396
            ],
            [
              -75.7618207,
              5.9494542
            ],
            [
              -75.7613541,
              5.9506522
            ],
            [
              -75.7596747,
              5.9518676
            ],
            [
              -75.758884,
              5.9521179
            ],
            [
              -75.7586269,
              5.9526626
            ],
            [
              -75.7532516,
              5.9538957
            ],
            [
              -75.7505235,
              5.9522297
            ],
            [
              -75.750285,
              5.9517244
            ],
            [
              -75.7488032,
              5.9512552
            ],
            [
              -75.7476337,
              5.9486597
            ],
            [
              -75.7474234,
              5.9473396
            ],
            [
              -75.7469704,
              5.9471259
            ],
            [
              -75.7460048,
              5.9436418
            ],
            [
              -75.7466588,
              5.9433332
            ],
            [
              -75.7469376,
              5.9421629
            ],
            [
              -75.7484373,
              5.9397335
            ],
            [
              -75.7493274,
              5.939121
            ],
            [
              -75.7498596,
              5.9388698
            ],
            [
              -75.7501055,
              5.9363031
            ],
            [
              -75.7526739,
              5.9352481
            ],
            [
              -75.7557826,
              5.9345076
            ],
            [
              -75.7592415,
              5.9306952
            ],
            [
              -75.7594574,
              5.9295644
            ],
            [
              -75.7605122,
              5.9283257
            ]
          ]
        ]
      }
    },
    {
      "type": "Feature",
      "properties": {
        "Id": 3,
        "Name": "Cerro Bravo"
      },
      "geometry": {
        "type": "Polygon",
        "coordinates": [
          [
            [
              -75.6982034,
              5.9308104
            ],
            [
              -75.6994133,
              5.9309392
            ],
            [
              -75.7030317,
              5.9319101
            ],
            [
              -75.7065212,
              5.9331959
            ],
            [
              -75.7067051,
              5.9333943
            ],
            [
              -75.7081505,
              5.9336703
            ],
            [
              -75.7116151,
              5.935882
            ],
            [
              -75.7128286,
              5.9379742
            ],
            [
              -75.7130124,
              5.9393194
            ],
            [
              -75.7144923,
              5.9433368
            ],
            [
              -75.7148762,
              5.9448018
            ],
            [
              -75.7134682,
              5.9471968
            ],
            [
              -75.7094568,
              5.9483711
            ],
            [
              -75.7078519,
              5.9486775
            ],
            [
              -75.7067612,
              5.9490598
            ],
            [
              -75.7051862,
              5.9488521
            ],
            [
              -75.7031346,
              5.9472789
            ],
            [
              -75.6990371,
              5.9466261
            ],
            [
              -75.6977606,
              5.946222
            ],
            [
              -75.6973459,
              5.9458377
            ],
            [
              -75.6971558,
              5.9452372
            ],
            [
              -75.695554,
              5.9449314
            ],
            [
              -75.6946026,
              5.944317
            ],
            [
              -75.6942888,
              5.9433259
            ],
            [
              -75.6939314,
              5.9429947
            ],
            [
              -75.6932046,
              5.9420038
            ],
            [
              -75.6921202,
              5.9409991
            ],
            [
              -75.6934745,
              5.9351751
            ],
            [
              -75.6953432,
              5.9329011
            ],
            [
              -75.6968935,
              5.9315564
            ],
            [
              -75.6977292,
              5.9312919
            ],
            [
              -75.697913,
              5.9310935
            ],
            [
              -75.6981114,
              5.9309096
            ],
            [
              -75.6982034,
              5.9308104
            ]
          ]
        ]
      }
    },
    {
      "type": "Feature",
      "properties": {
        "Id": 4,
        "Name": "Morro Alegre"
      },
      "geometry": {
        "type": "Polygon",
        "coordinates": [
          [
            [
              -75.6959098,
              5.8763379
            ],
            [
              -75.6996548,
              5.8764302
            ],
            [
              -75.7028167,
              5.8775651
            ],
            [
              -75.704551,
              5.8791721
            ],
            [
              -75.7047938,
              5.8796864
            ],
            [
              -75.7055497,
              5.8799257
            ],
            [
              -75.7074741,
              5.8817088
            ],
            [
              -75.7080503,
              5.8825461
            ],
            [
              -75.7082341,
              5.8829356
            ],
            [
              -75.7087638,
              5.8834264
            ],
            [
              -75.7093373,
              5.8845101
            ],
            [
              -75.7094421,
              5.887154
            ],
            [
              -75.7086237,
              5.8894341
            ],
            [
              -75.7082341,
              5.8896179
            ],
            [
              -75.7079069,
              5.889971
            ],
            [
              -75.706751,
              5.8905827
            ],
            [
              -75.704396,
              5.8904893
            ],
            [
              -75.7030736,
              5.8915292
            ],
            [
              -75.7027194,
              5.8919115
            ],
            [
              -75.7005889,
              5.8917276
            ],
            [
              -75.7000149,
              5.89017
            ],
            [
              -75.6994484,
              5.8896451
            ],
            [
              -75.6992582,
              5.8890445
            ],
            [
              -75.6980425,
              5.8888124
            ],
            [
              -75.6967708,
              5.8872498
            ],
            [
              -75.6959081,
              5.8858409
            ],
            [
              -75.6954356,
              5.8848396
            ],
            [
              -75.6950931,
              5.8845223
            ],
            [
              -75.6943323,
              5.8832797
            ],
            [
              -75.6937154,
              5.8819727
            ],
            [
              -75.6933343,
              5.8816195
            ],
            [
              -75.6932707,
              5.8800137
            ],
            [
              -75.693639,
              5.8780846
            ],
            [
              -75.6942917,
              5.8770737
            ],
            [
              -75.6957566,
              5.8765033
            ],
            [
              -75.6959098,
              5.8763379
            ]
          ]
        ]
      }
    }
  ]
}